{"_default": { "26": {"norad_id": "39417", "name": "ZACUBE", "tle1": "1 39417U 13066B   26164.14131243  .00003691  00000-0  28793-3 0  9999", "tle2": "2 39417  97.8084 126.4562 0040377 261.8292  97.8350 15.01166542680129", "object_type": "PAYLOAD", "criticality_score": 9.0, "last_updated": "2026-06-13T17:29:25.184973+00:00", "maneuver_count": 0, "owner": "N/A"}, "27": {"norad_id": "39161", "name": "ESTCUBE 1", "tle1": "1 39161U 13021C   26164.14198508  .00001489  00000-0  19684-3 0  9995", "tle2": "2 39161  97.7294 218.4693 0008957  37.6440 322.5398 14.81389348704424", "object_type": "PAYLOAD", "criticality_score": 9.0, "last_updated": "2026-06-13T17:29:25.184973+00:00", "maneuver_count": 0, "owner": "N/A"}, "28": {"norad_id": "39153", "name": "CUBEBUG 1", "tle1": "1 39153U 13018D   26164.15848455  .00002808  00000-0  24753-3 0  9995", "tle2": "2 39153  98.1654 323.9206 0011804 157.4980 202.6761 14.97276481710460", "object_type": "PAYLOAD", "criticality_score": 9.0, "last_updated": "2026-06-13T17:29:25.184973+00:00", "maneuver_count": 0, "owner": "N/A"}, "29": {"norad_id": "39091", "name": "BRITE-A TUGSAT-1", "tle1": "1 39091U 13009F   26164.02901770  .00000161  00000-0  69463-4 0  9990", "tle2": "2 39091  98.3993 343.5677 0009019 250.5098 109.5115 14.36540568696452", "object_type": "PAYLOAD", "criticality_score": 9.0, "last_updated": "2026-06-13T17:29:25.184973+00:00", "maneuver_count": 0, "owner": "N/A"}, "30": {"norad_id": "39087", "name": "AAUSAT3", "tle1": "1 39087U 13009B   26163.31649731  .00000613  00000-0  20829-3 0  9996", "tle2": "2 39087  98.3700 347.2214 0010480 222.1116 137.9268 14.39933917696474", "object_type": "PAYLOAD", "criticality_score": 9.0, "last_updated": "2026-06-13T17:29:25.184973+00:00", "maneuver_count": 0, "owner": "N/A"}, "57": {"norad_id": "39260", "name": "FENGYUN 3C", "tle1": "1 39260U 13052A   26164.22744491  .00000073  00000-0  57953-4 0  9996", "tle2": "2 39260  98.4985 138.2841 0015440  38.5497 321.6778 14.15754291658004", "object_type": "PAYLOAD", "criticality_score": 9.0, "last_updated": "2026-06-13T17:29:25.184973+00:00", "maneuver_count": 0, "owner": "N/A"}, "58": {"norad_id": "39090", "name": "STRAND 1", "tle1": "1 39090U 13009E   26164.22680756  .00000263  00000-0  10267-3 0  9999", "tle2": "2 39090  98.3921 344.5588 0007559 238.7120 121.3328 14.37161166696491", "object_type": "PAYLOAD", "criticality_score": 9.0, "last_updated": "2026-06-13T17:29:25.184973+00:00", "maneuver_count": 0, "owner": "N/A"}, "60": {"norad_id": "38340", "name": "HORYU 2", "tle1": "1 38340U 12025D   26164.27989890  .00002771  00000-0  28603-3 0  9998", "tle2": "2 38340  98.2168 297.0566 0007988 186.5962 173.5152 14.91046120748144", "object_type": "PAYLOAD", "criticality_score": 9.0, "last_updated": "2026-06-13T17:29:25.184973+00:00", "maneuver_count": 0, "owner": "N/A"}, "117": {"norad_id": "39265", "name": "CASSIOPE", "tle1": "1 39265U 13055A   26164.22530005  .00048651 -44564-6  53304-3 0  9997", "tle2": "2 39265  80.9152  71.5311 0294236  75.7481 287.6236 15.24828635667061", "object_type": "PAYLOAD", "criticality_score": 9.0, "last_updated": "2026-06-13T17:29:25.184973+00:00", "maneuver_count": 0, "owner": "N/A"}, "118": {"norad_id": "39151", "name": "NEE 01 PEGASUS", "tle1": "1 39151U 13018B   26163.91117881  .00002140  00000-0  20813-3 0  9990", "tle2": "2 39151  98.1215 307.9206 0012734 172.7628 187.3777 14.93641773710063", "object_type": "PAYLOAD", "criticality_score": 9.0, "last_updated": "2026-06-13T17:29:25.184973+00:00", "maneuver_count": 0, "owner": "N/A"}, "119": {"norad_id": "39092", "name": "BRITE-U UNIBRITE", "tle1": "1 39092U 13009G   26164.24988349  .00000169  00000-0  72136-4 0  9991", "tle2": "2 39092  98.4031 343.8932 0007970 245.5020 114.5336 14.36411894696424", "object_type": "PAYLOAD", "criticality_score": 9.0, "last_updated": "2026-06-13T17:29:25.184973+00:00", "maneuver_count": 0, "owner": "N/A"}, "120": {"norad_id": "39086", "name": "SARAL", "tle1": "1 39086U 13009A   26164.27005448  .00000088  00000-0  48256-4 0  9993", "tle2": "2 39086  98.5556 350.8869 0000906 332.3852  27.7284 14.32855009695047", "object_type": "PAYLOAD", "criticality_score": 9.0, "last_updated": "2026-06-13T17:29:25.184973+00:00", "maneuver_count": 0, "owner": "N/A"}, "121": {"norad_id": "38771", "name": "METOP-B", "tle1": "1 38771U 12049A   26164.24770968  .00000092  00000-0  61835-4 0  9992", "tle2": "2 38771  98.6505 215.8253 0002470  29.2059 330.9256 14.21431683712705", "object_type": "PAYLOAD", "criticality_score": 9.0, "last_updated": "2026-06-13T17:29:25.184973+00:00", "maneuver_count": 0, "owner": "N/A"}, "198": {"norad_id": "38761", "name": "CSSWE", "tle1": "1 38761U 12048D   26164.27737455  .00025808  00000-0  53789-3 0  9997", "tle2": "2 38761  64.6620 106.7342 0047712 174.9970 185.1654 15.44284631115793", "object_type": "PAYLOAD", "criticality_score": 9.0, "last_updated": "2026-06-13T17:29:25.184973+00:00", "maneuver_count": 0, "owner": "N/A"}, "201": {"norad_id": "38763", "name": "CP5", "tle1": "1 38763U 12048F   26164.27070647  .00010078  00000-0  34553-3 0  9993", "tle2": "2 38763  64.6428 165.5306 0079102 177.5307 182.6230 15.27676750116167", "object_type": "PAYLOAD", "criticality_score": 9.0, "last_updated": "2026-06-13T17:29:25.184973+00:00", "maneuver_count": 0, "owner": "N/A"}, "210": {"norad_id": "39152", "name": "TURKSAT 3U", "tle1": "1 39152U 13018C   26164.20290768  .00004092  00000-0  36560-3 0  9994", "tle2": "2 39152  97.7933 255.0442 0013638 112.0224 248.2448 14.96405962710494", "object_type": "PAYLOAD", "criticality_score": 9.0, "last_updated": "2026-06-13T17:29:25.184973+00:00", "maneuver_count": 0, "owner": "N/A"}, "258": {"norad_id": "39159", "name": "PROBA V", "tle1": "1 39159U 13021A   26164.18320780  .00000064  00000-0  46163-4 0  9996", "tle2": "2 39159  98.3583 142.9875 0004993 132.9393 227.2206 14.23596263680541", "object_type": "PAYLOAD", "criticality_score": 9.0, "last_updated": "2026-06-13T17:29:25.184973+00:00", "maneuver_count": 0, "owner": "N/A"}, "266": {"norad_id": "39133", "name": "AIST 2", "tle1": "1 39133U 13015D   26164.25978345  .00005905  00000-0  23369-3 0  9996", "tle2": "2 39133  64.8695 270.1735 0018866 246.9728 112.9413 15.26263896723305", "object_type": "PAYLOAD", "criticality_score": 9.0, "last_updated": "2026-06-13T17:29:25.184973+00:00", "maneuver_count": 0, "owner": "N/A"}, "373": {"norad_id": "39416", "name": "APRIZESAT 7", "tle1": "1 39416U 13066A   26163.86048178  .00000888  00000-0  93384-4 0  9994", "tle2": "2 39416  97.7708 117.1426 0034670 223.9352 135.9109 14.91555442680586", "object_type": "PAYLOAD", "criticality_score": 9.0, "last_updated": "2026-06-13T17:29:25.184973+00:00", "maneuver_count": 0, "owner": "N/A"}, "374": {"norad_id": "39425", "name": "APRIZESAT 8", "tle1": "1 39425U 13066K   26163.83672406  .00000941  00000-0  10788-3 0  9994", "tle2": "2 39425  97.8221 111.3653 0044593 301.3371  58.3485 14.87645103679023", "object_type": "PAYLOAD", "criticality_score": 9.0, "last_updated": "2026-06-13T17:29:25.184973+00:00", "maneuver_count": 0, "owner": "N/A"}, "434": {"norad_id": "38860", "name": "SJ-9A", "tle1": "1 38860U 12056A   26164.25757587  .00001173  00000-0  14140-3 0  9999", "tle2": "2 38860  97.6708 136.3511 0023933 270.5241  89.3232 14.85472392699001", "object_type": "PAYLOAD", "criticality_score": 9.0, "last_updated": "2026-06-13T17:29:25.184973+00:00", "maneuver_count": 0, "owner": "N/A"}, "471": {"norad_id": "37849", "name": "NPP", "tle1": "1 37849U 11061A   26164.25235061  .00000045  00000-0  42341-4 0  9990", "tle2": "2 37849  98.7954 105.1553 0001749  15.9779 344.1451 14.19516624757880", "object_type": "PAYLOAD", "criticality_score": 9.0, "last_updated": "2026-06-13T17:29:25.184973+00:00", "maneuver_count": 0, "owner": "N/A"}, "531": {"norad_id": "37875", "name": "YAOGAN 12", "tle1": "1 37875U 11066B   26164.26730862  .00005818  00000-0  22497-3 0  9996", "tle2": "2 37875  97.1149 203.0201 0008330 232.4916 127.5567 15.26556630811442", "object_type": "PAYLOAD", "criticality_score": 9.0, "last_updated": "2026-06-13T17:29:25.184973+00:00", "maneuver_count": 0, "owner": "N/A"}, "537": {"norad_id": "39227", "name": "KOMPSAT 5", "tle1": "1 39227U 13042A   26164.30854962  .00001082  00000-0  81669-4 0  9994", "tle2": "2 39227  97.6212 351.0641 0005074 130.3643 229.8026 15.04480859703270", "object_type": "PAYLOAD", "criticality_score": 9.0, "last_updated": "2026-06-13T17:29:25.184973+00:00", "maneuver_count": 0, "owner": "N/A"}, "592": {"norad_id": "39059", "name": "COSMOS 2484", "tle1": "1 39059U 13001C   26164.28238774  .00000033  00000-0  16568-3 0  9996", "tle2": "2 39059  82.5023 224.3199 0027038  44.9201 315.4061 12.42938769608070", "object_type": "PAYLOAD", "criticality_score": 9.0, "last_updated": "2026-06-13T17:29:25.184973+00:00", "maneuver_count": 0, "owner": "N/A"}, "593": {"norad_id": "39249", "name": "GONETS M 05", "tle1": "1 39249U 13048A   26164.25106451  .00000031  00000-0  15251-3 0  9997", "tle2": "2 39249  82.4831 345.8373 0015920 219.4088 140.5834 12.42891798578395", "object_type": "PAYLOAD", "criticality_score": 9.0, "last_updated": "2026-06-13T17:29:25.184973+00:00", "maneuver_count": 0, "owner": "N/A"}, "594": {"norad_id": "39251", "name": "GONETS M 07", "tle1": "1 39251U 13048C   26164.29458956  .00000002  00000-0 -53431-4 0  9996", "tle2": "2 39251  82.4899 348.7305 0016706 220.7080 139.2752 12.42914523578351", "object_type": "PAYLOAD", "criticality_score": 9.0, "last_updated": "2026-06-13T17:29:25.184973+00:00", "maneuver_count": 0, "owner": "N/A"}, "639": {"norad_id": "39150", "name": "GAOFEN 1", "tle1": "1 39150U 13018A   26164.26804108  .00000267  00000-0  45518-4 0  9991", "tle2": "2 39150  97.9099 236.4153 0015698 280.5590  79.3851 14.76531262707661", "object_type": "PAYLOAD", "criticality_score": 9.0, "last_updated": "2026-06-13T17:29:25.184973+00:00", "maneuver_count": 0, "owner": "N/A"}, "645": {"norad_id": "38338", "name": "KOMPSAT 3", "tle1": "1 38338U 12025B   26164.26902351  .00000386  00000-0  85894-4 0  9997", "tle2": "2 38338  98.1176 121.7966 0006540 119.2983 240.8873 14.62202984750775", "object_type": "PAYLOAD", "criticality_score": 9.0, "last_updated": "2026-06-13T17:29:25.184973+00:00", "maneuver_count": 0, "owner": "N/A"}, "658": {"norad_id": "38251", "name": "BEIDOU 13", "tle1": "1 38251U 12018B   26163.82529677 -.00000069  00000-0  00000-0 0  9991", "tle2": "2 38251  55.6622 304.2372 0011279 276.2028  83.6498  1.86229596 95869", "object_type": "PAYLOAD", "criticality_score": 9.0, "last_updated": "2026-06-13T17:29:25.184973+00:00", "maneuver_count": 0, "owner": "N/A"}}}